{"type": "FeatureCollection", "features": [ {"type": "Feature", "properties": {"norad_id": 34635, "name": "COSMOS 2251 DEB", "group": "cosmos-2251-debris", "lat": 37.649114852750294, "lon": 62.70403580297437, "alt_km": 658.1564109070005, "timestamp": "2025-12-23T11:34:48.555311+00:00", "meta": {"OBJECT_NAME": "COSMOS 2251 DEB", "OBJECT_ID": "1993-036XG", "EPOCH": "2025-12-23T03:21:38.598048", "MEAN_MOTION": 14.68387314, "ECCENTRICITY": 0.0027744, "INCLINATION": 74.0452, "RA_OF_ASC_NODE": 50.6153, "ARG_OF_PERICENTER": 115.7102, "MEAN_ANOMALY": 274.4775, "EPHEMERIS_TYPE": 0, "CLASSIFICATION_TYPE": "U", "NORAD_CAT_ID": 34635, "ELEMENT_SET_NO": 999, "REV_AT_EPOCH": 73372, "BSTAR": 0.0011302, "MEAN_MOTION_DOT": 6.548e-05, "MEAN_MOTION_DDOT": 0}, "tle": {"line1": "1 34635U 93036XG  25357.14003007  .00006548  00000+0  11302-2 0  9990", "line2": "2 34635  74.0452  50.6153 0027744 115.7102 274.4775 14.68387314733729"}}, "geometry": {"type": "Point", "coordinates": [62.70403580297437, 37.649114852750294]}}, {"type": "Feature", "properties": {"norad_id": 34637, "name": "COSMOS 2251 DEB", "group": "cosmos-2251-debris", "lat": -73.58726971565454, "lon": 4.520854735153148, "alt_km": 719.658077320667, "timestamp": "2025-12-23T11:34:48.555320+00:00", "meta": {"OBJECT_NAME": "COSMOS 2251 DEB", "OBJECT_ID": "1993-036XJ", "EPOCH": "2025-12-22T06:39:01.562688", "MEAN_MOTION": 14.60173978, "ECCENTRICITY": 0.00491154, "INCLINATION": 74.0499, "RA_OF_ASC_NODE": 82.9677, "ARG_OF_PERICENTER": 150.8636, "MEAN_ANOMALY": 268.7882, "EPHEMERIS_TYPE": 0, "CLASSIFICATION_TYPE": "U", "NORAD_CAT_ID": 34637, "ELEMENT_SET_NO": 999, "REV_AT_EPOCH": 88666, "BSTAR": 0.0008534586, "MEAN_MOTION_DOT": 4.154e-05, "MEAN_MOTION_DDOT": 0}, "tle": {"line1": "1 34637U 93036XJ  25356.27710142  .00004154  00000+0  85346-3 0  9991", "line2": "2 34637  74.0499  82.9677 0049115 150.8636 268.7882 14.60173978886667"}}, "geometry": {"type": "Point", "coordinates": [4.520854735153148, -73.58726971565454]}}, {"type": "Feature", "properties": {"norad_id": 34641, "name": "COSMOS 2251 DEB", "group": "cosmos-2251-debris", "lat": -46.08841646456979, "lon": 43.632357624525206, "alt_km": 712.8003124962725, "timestamp": "2025-12-23T11:34:48.555329+00:00", "meta": {"OBJECT_NAME": "COSMOS 2251 DEB", "OBJECT_ID": "1993-036XN", "EPOCH": "2025-12-22T21:27:41.254272", "MEAN_MOTION": 14.52068607, "ECCENTRICITY": 0.0019012, "INCLINATION": 73.8383, "RA_OF_ASC_NODE": 62.2848, "ARG_OF_PERICENTER": 335.0136, "MEAN_ANOMALY": 142.5889, "EPHEMERIS_TYPE": 0, "CLASSIFICATION_TYPE": "U", "NORAD_CAT_ID": 34641, "ELEMENT_SET_NO": 999, "REV_AT_EPOCH": 88403, "BSTAR": 0.00080612, "MEAN_MOTION_DOT": 3.241e-05, "MEAN_MOTION_DDOT": 0}, "tle": {"line1": "1 34641U 93036XN  25356.89422748  .00003241  00000+0  80612-3 0  9993", "line2": "2 34641  73.8383  62.2848 0019012 335.0136 142.5889 14.52068607884035"}}, "geometry": {"type": "Point", "coordinates": [43.632357624525206, -46.08841646456979]}}, {"type": "Feature", "properties": {"norad_id": 34642, "name": "COSMOS 2251 DEB", "group": "cosmos-2251-debris", "lat": 32.54556569761362, "lon": 130.64520150195472, "alt_km": 745.8272220446934, "timestamp": "2025-12-23T11:34:48.555339+00:00", "meta": {"OBJECT_NAME": "COSMOS 2251 DEB", "OBJECT_ID": "1993-036XP", "EPOCH": "2025-12-22T21:18:46.794240", "MEAN_MOTION": 13.99000221, "ECCENTRICITY": 0.0206539, "INCLINATION": 74.0044, "RA_OF_ASC_NODE": 322.2225, "ARG_OF_PERICENTER": 139.6532, "MEAN_ANOMALY": 253.1213, "EPHEMERIS_TYPE": 0, "CLASSIFICATION_TYPE": "U", "NORAD_CAT_ID": 34642, "ELEMENT_SET_NO": 999, "REV_AT_EPOCH": 85435, "BSTAR": 0.00078596, "MEAN_MOTION_DOT": 1.341e-05, "MEAN_MOTION_DDOT": 0}, "tle": {"line1": "1 34642U 93036XP  25356.88804160  .00001341  00000+0  78596-3 0  9992", "line2": "2 34642  74.0044 322.2225 0206539 139.6532 253.1213 13.99000221854351"}}, "geometry": {"type": "Point", "coordinates": [130.64520150195472, 32.54556569761362]}}, {"type": "Feature", "properties": {"norad_id": 34671, "name": "COSMOS 2251 DEB", "group": "cosmos-2251-debris", "lat": -73.45172810160417, "lon": 38.9862458881589, "alt_km": 675.9692122067299, "timestamp": "2025-12-23T11:34:48.555348+00:00", "meta": {"OBJECT_NAME": "COSMOS 2251 DEB", "OBJECT_ID": "1993-036XR", "EPOCH": "2025-12-22T02:23:20.292288", "MEAN_MOTION": 14.67083344, "ECCENTRICITY": 0.00107529, "INCLINATION": 74.0273, "RA_OF_ASC_NODE": 116.2253, "ARG_OF_PERICENTER": 197.1927, "MEAN_ANOMALY": 335.865, "EPHEMERIS_TYPE": 0, "CLASSIFICATION_TYPE": "U", "NORAD_CAT_ID": 34671, "ELEMENT_SET_NO": 999, "REV_AT_EPOCH": 88434, "BSTAR": 0.0016108198, "MEAN_MOTION_DOT": 9.033e-05, "MEAN_MOTION_DDOT": 0}, "tle": {"line1": "1 34671U 93036XR  25356.09954042  .00009033  00000+0  16108-2 0  9998", "line2": "2 34671  74.0273 116.2253 0010752 197.1927 335.8650 14.67083344884344"}}, "geometry": {"type": "Point", "coordinates": [38.9862458881589, -73.45172810160417]}}, {"type": "Feature", "properties": {"norad_id": 34672, "name": "COSMOS 2251 DEB", "group": "cosmos-2251-debris", "lat": -8.80555210898426, "lon": -76.68990321974786, "alt_km": 756.7014190540776, "timestamp": "2025-12-23T11:34:48.555357+00:00", "meta": {"OBJECT_NAME": "COSMOS 2251 DEB", "OBJECT_ID": "1993-036XS", "EPOCH": "2025-12-23T01:39:52.430976", "MEAN_MOTION": 14.36424251, "ECCENTRICITY": 0.00243, "INCLINATION": 74.0343, "RA_OF_ASC_NODE": 286.6106, "ARG_OF_PERICENTER": 356.3889, "MEAN_ANOMALY": 18.9966, "EPHEMERIS_TYPE": 0, "CLASSIFICATION_TYPE": "U", "NORAD_CAT_ID": 34672, "ELEMENT_SET_NO": 999, "REV_AT_EPOCH": 65326, "BSTAR": 0.0002515, "MEAN_MOTION_DOT": 7.13e-06, "MEAN_MOTION_DDOT": 0}, "tle": {"line1": "1 34672U 93036XS  25357.06935684  .00000713  00000+0  25150-3 0  9992", "line2": "2 34672  74.0343 286.6106 0024300 356.3889  18.9966 14.36424251653268"}}, "geometry": {"type": "Point", "coordinates": [-76.68990321974786, -8.80555210898426]}}, {"type": "Feature", "properties": {"norad_id": 34678, "name": "COSMOS 2251 DEB", "group": "cosmos-2251-debris", "lat": -65.96802150027347, "lon": -53.770053427715865, "alt_km": 802.584750471915, "timestamp": "2025-12-23T11:34:48.555367+00:00", "meta": {"OBJECT_NAME": "COSMOS 2251 DEB", "OBJECT_ID": "1993-036XY", "EPOCH": "2025-12-21T03:23:16.433088", "MEAN_MOTION": 14.30066471, "ECCENTRICITY": 0.0024663, "INCLINATION": 74.0376, "RA_OF_ASC_NODE": 350.418, "ARG_OF_PERICENTER": 36.9157, "MEAN_ANOMALY": 82.6151, "EPHEMERIS_TYPE": 0, "CLASSIFICATION_TYPE": "U", "NORAD_CAT_ID": 34678, "ELEMENT_SET_NO": 999, "REV_AT_EPOCH": 87499, "BSTAR": 2.8349e-05, "MEAN_MOTION_DOT": 4.8e-07, "MEAN_MOTION_DDOT": 0}, "tle": {"line1": "1 34678U 93036XY  25355.14116242  .00000048  00000+0  28349-4 0  9991", "line2": "2 34678  74.0376 350.4180 0024663  36.9157  82.6151 14.30066471874992"}}, "geometry": {"type": "Point", "coordinates": [-53.770053427715865, -65.96802150027347]}}, {"type": "Feature", "properties": {"norad_id": 34680, "name": "COSMOS 2251 DEB", "group": "cosmos-2251-debris", "lat": -44.42296129894084, "lon": 93.06338671141941, "alt_km": 698.1705538141614, "timestamp": "2025-12-23T11:34:48.555376+00:00", "meta": {"OBJECT_NAME": "COSMOS 2251 DEB", "OBJECT_ID": "1993-036YA", "EPOCH": "2025-12-23T00:49:06.080160", "MEAN_MOTION": 14.60725058, "ECCENTRICITY": 0.0006366, "INCLINATION": 74.0446, "RA_OF_ASC_NODE": 110.2025, "ARG_OF_PERICENTER": 211.4872, "MEAN_ANOMALY": 264.7681, "EPHEMERIS_TYPE": 0, "CLASSIFICATION_TYPE": "U", "NORAD_CAT_ID": 34680, "ELEMENT_SET_NO": 999, "REV_AT_EPOCH": 88478, "BSTAR": 0.0011882, "MEAN_MOTION_DOT": 5.77e-05, "MEAN_MOTION_DDOT": 0}, "tle": {"line1": "1 34680U 93036YA  25357.03409815  .00005770  00000+0  11882-2 0  9994", "line2": "2 34680  74.0446 110.2025 0006366 211.4872 264.7681 14.60725058884782"}}, "geometry": {"type": "Point", "coordinates": [93.06338671141941, -44.42296129894084]}}, {"type": "Feature", "properties": {"norad_id": 34681, "name": "COSMOS 2251 DEB", "group": "cosmos-2251-debris", "lat": -21.891719964992426, "lon": -97.43400304836628, "alt_km": 605.9400081885187, "timestamp": "2025-12-23T11:34:48.555385+00:00", "meta": {"OBJECT_NAME": "COSMOS 2251 DEB", "OBJECT_ID": "1993-036YB", "EPOCH": "2025-12-22T19:44:57.837696", "MEAN_MOTION": 14.83433689, "ECCENTRICITY": 0.00257012, "INCLINATION": 74.0629, "RA_OF_ASC_NODE": 270.463, "ARG_OF_PERICENTER": 326.0128, "MEAN_ANOMALY": 90.1019, "EPHEMERIS_TYPE": 0, "CLASSIFICATION_TYPE": "U", "NORAD_CAT_ID": 34681, "ELEMENT_SET_NO": 999, "REV_AT_EPOCH": 89420, "BSTAR": 0.001403613, "MEAN_MOTION_DOT": 0.0001158, "MEAN_MOTION_DDOT": 0}, "tle": {"line1": "1 34681U 93036YB  25356.82289164  .00011580  00000+0  14036-2 0  9994", "line2": "2 34681  74.0629 270.4630 0025701 326.0128  90.1019 14.83433689894203"}}, "geometry": {"type": "Point", "coordinates": [-97.43400304836628, -21.891719964992426]}}, {"type": "Feature", "properties": {"norad_id": 34682, "name": "COSMOS 2251 DEB", "group": "cosmos-2251-debris", "lat": -46.06321531228317, "lon": -100.1932741480813, "alt_km": 692.4790462636674, "timestamp": "2025-12-23T11:34:48.555394+00:00", "meta": {"OBJECT_NAME": "COSMOS 2251 DEB", "OBJECT_ID": "1993-036YC", "EPOCH": "2025-12-23T04:05:16.860192", "MEAN_MOTION": 14.58962584, "ECCENTRICITY": 0.0017796, "INCLINATION": 74.0393, "RA_OF_ASC_NODE": 63.1226, "ARG_OF_PERICENTER": 195.1771, "MEAN_ANOMALY": 194.1916, "EPHEMERIS_TYPE": 0, "CLASSIFICATION_TYPE": "U", "NORAD_CAT_ID": 34682, "ELEMENT_SET_NO": 999, "REV_AT_EPOCH": 88838, "BSTAR": 0.00071601, "MEAN_MOTION_DOT": 3.338e-05, "MEAN_MOTION_DDOT": 0}, "tle": {"line1": "1 34682U 93036YC  25357.17033403  .00003338  00000+0  71601-3 0  9991", "line2": "2 34682  74.0393  63.1226 0017796 195.1771 194.1916 14.58962584888380"}}, "geometry": {"type": "Point", "coordinates": [-100.1932741480813, -46.06321531228317]}}]}